NORAD_CAT_ID,OBJECT_NAME,OBJECT_TYPE,EPOCH,MEAN_MOTION,ECCENTRICITY,INCLINATION,RA_OF_ASC_NODE,ARG_OF_PERICENTER,MEAN_ANOMALY,BSTAR,MEAN_MOTION_DOT,MEAN_MOTION_DDOT,TLE_LINE0,TLE_LINE1,TLE_LINE2,SEMIMAJOR_AXIS,PERIOD,APOGEE,PERIGEE,DECAYED
56793.0,STARLINK-6052,PAYLOAD,2023-06-06 16:00:03,15.91202297,0.0027948,70.0043,35.8061,161.7739,105.0519,-0.0031825,-0.01050351,0.00032831,0 STARLINK-6052,1 56793U 23078AC  23157.66670139 -.01050351  32831-3 -31825-2 0  9994,2 56793  70.0043  35.8061 0027948 161.7739 105.0519 15.91202297  1306,6677.054,90.498,317.58,280.258,0.0
56793.0,STARLINK-6052,PAYLOAD,2023-06-06 22:00:00,15.90657707,0.0025386,70.0038,35.0811,162.0163,96.0887,-0.0030229,-0.00964486,0.0002789,0 STARLINK-6052,1 56793U 23078AC  23157.91667824 -.00964486  27890-3 -30229-2 0  9997,2 56793  70.0038  35.0811 0025386 162.0163  96.0887 15.90657707  1300,6678.578,90.529,317.397,283.489,0.0
56793.0,STARLINK-6052,PAYLOAD,2023-06-07 10:30:22,15.90029999,0.0027247,70.0039,33.5719,162.7167,197.4974,-0.00039858,-0.00125172,9.0478e-06,0 STARLINK-6052,1 56793U 23078AC  23158.43775671 -.00125172  90478-5 -39858-3 0  9998,2 56793  70.0039  33.5719 0027247 162.7167 197.4974 15.90029999  1163,6680.336,90.564,320.403,283.999,0.0
56793.0,STARLINK-6052,PAYLOAD,2023-06-07 12:00:00,15.89520201,0.0020122,70.0036,33.3915,164.3849,191.9024,-0.0032048,-0.00954524,0.00027055,0 STARLINK-6052,1 56793U 23078AC  23158.50001157 -.00954524  27055-3 -32048-2 0  9990,2 56793  70.0036  33.3915 0020122 164.3849 191.9024 15.89520201  1431,6681.764,90.593,317.074,290.184,0.0
56793.0,STARLINK-6052,PAYLOAD,2023-06-07 20:00:01,15.88874014,0.0016903,70.0034,32.4274,165.5924,297.1636,-0.0034411,-0.00986652,0.00028584,0 STARLINK-6052,1 56793U 23078AC  23158.83334491 -.00986652  28584-3 -34411-2 0  9997,2 56793  70.0034  32.4274 0016903 165.5924 297.1636 15.88874014  1482,6683.576,90.63,316.738,294.143,0.0
56793.0,STARLINK-6052,PAYLOAD,2023-06-07 22:00:00,15.8868845,0.00162,70.0032,32.1865,165.786,53.4687,-0.0033055,-0.00938385,0.00026002,0 STARLINK-6052,1 56793U 23078AC  23158.91667824 -.00938385  26002-3 -33055-2 0  9991,2 56793  70.0032  32.1865 0016200 165.7860  53.4687 15.88688450  1301,6684.096,90.641,316.789,295.133,0.0
56793.0,STARLINK-6052,PAYLOAD,2023-06-08 04:00:00,15.88239921,0.0013878,70.0025,31.464,167.6787,40.7453,-0.0036605,-0.01012581,0.00029807,0 STARLINK-6052,1 56793U 23078AC  23159.16667824 -.01012581  29807-3 -36605-2 0  9991,2 56793  70.0025  31.4640 0013878 167.6787  40.7453 15.88239921  1533,6685.354,90.666,316.497,297.941,0.0
56793.0,STARLINK-6052,PAYLOAD,2023-06-08 12:00:00,15.8757047,0.0011356,70.003,30.5014,172.939,140.384,-0.0036237,-0.00967436,0.00027219,0 STARLINK-6052,1 56793U 23078AC  23159.50001157 -.00967436  27219-3 -36237-2 0  9993,2 56793  70.0030  30.5014 0011356 172.9390 140.3840 15.87570470  1591,6687.234,90.705,316.693,301.505,0.0
56793.0,STARLINK-6052,PAYLOAD,2023-06-08 12:11:50,15.87788947,0.0010892,70.0033,30.4778,172.4218,187.7154,-0.0003688,-0.00100904,7.1448e-06,0 STARLINK-6052,1 56793U 23078AC  23159.50822169 -.00100904  71448-5 -36880-3 0  9996,2 56793  70.0033  30.4778 0010892 172.4218 187.7154 15.87788947  1333,6686.62,90.692,315.768,301.202,0.0
56793.0,STARLINK-6052,PAYLOAD,2023-06-08 20:00:01,15.86929985,0.000829,70.0032,29.5399,179.523,237.9858,-0.0039254,-0.00918862,0.0,0 STARLINK-6052,1 56793U 23078AC  23159.83335648 -.00918862  00000-0 -39254-2 0  9991,2 56793  70.0032  29.5399 0008290 179.5230 237.9858 15.86929985  1642,6689.033,90.741,316.443,305.353,0.0
56793.0,STARLINK-6052,PAYLOAD,2023-06-08 22:00:00,15.86726053,0.000755,70.0031,29.2998,180.7182,352.6428,-0.0036202,-0.00845211,0.0,0 STARLINK-6052,1 56793U 23078AC  23159.91667824 -.00845211  00000-0 -36202-2 0  9991,2 56793  70.0031  29.2998 0007550 180.7182 352.6428 15.86726053  1303,6689.606,90.753,316.522,306.42,0.0
56793.0,STARLINK-6052,PAYLOAD,2023-06-09 04:00:00,15.86287578,0.0005552,70.003,28.5793,191.5226,329.2454,-0.0040882,-0.00924227,0.0,0 STARLINK-6052,1 56793U 23078AC  23160.16667824 -.00924227  00000-0 -40882-2 0  9994,2 56793  70.0030  28.5793 0005552 191.5226 329.2454 15.86287578  1691,6690.839,90.778,316.418,308.989,0.0
56793.0,STARLINK-6052,PAYLOAD,2023-06-09 12:00:02,15.8561178,0.0004264,70.0035,27.6197,217.1257,46.2616,-0.0039712,-0.00872865,0.0,0 STARLINK-6052,1 56793U 23078AC  23160.50002315 -.00872865  00000-0 -39712-2 0  9990,2 56793  70.0035  27.6197 0004264 217.1257  46.2616 15.85611780  1750,6692.74,90.817,317.458,311.751,0.0
56793.0,STARLINK-6052,PAYLOAD,2023-06-09 14:00:01,15.85493117,0.000399,70.0037,27.3799,226.8764,151.9457,-0.0043599,-0.00944806,0.0,0 STARLINK-6052,1 56793U 23078AC  23160.58334491 -.00944806  00000-0 -43599-2 0  9994,2 56793  70.0037  27.3799 0003990 226.8764 151.9457 15.85493117  1302,6693.074,90.823,317.609,312.268,0.0
56793.0,STARLINK-6052,PAYLOAD,2023-06-09 20:00:01,15.84972848,0.0003925,70.0042,26.661,254.104,110.9899,-0.0042997,-0.00911965,0.0,0 STARLINK-6052,1 56793U 23078AC  23160.83334491 -.00911965  00000-0 -42997-2 0  9993,2 56793  70.0042  26.6610 0003925 254.1040 110.9899 15.84972848  1803,6694.538,90.853,319.031,313.776,0.0
56793.0,STARLINK-6052,PAYLOAD,2023-06-09 22:00:00,15.84790402,0.0003842,70.0041,26.4217,261.6493,218.7693,-0.0041609,-0.00878138,0.0,0 STARLINK-6052,1 56793U 23078AC  23160.91667824 -.00878138  00000-0 -41609-2 0  9994,2 56793  70.0041  26.4217 0003842 261.6493 218.7693 15.84790402  1304,6695.052,90.864,319.489,314.345,0.0
56793.0,STARLINK-6052,PAYLOAD,2023-06-10 04:00:01,15.84340028,0.0004057,70.0038,25.7033,271.2718,194.8659,-0.00461,-0.00944924,0.0,0 STARLINK-6052,1 56793U 23078AC  23161.16668981 -.00944924  00000-0 -46100-2 0  9995,2 56793  70.0038  25.7033 0004057 271.2718 194.8659 15.84340028  1855,6696.321,90.89,320.902,315.469,0.0
56793.0,STARLINK-6052,PAYLOAD,2023-06-10 12:00:02,15.83658412,0.0003755,70.0038,24.7467,264.0328,302.3117,-0.004375,-0.00874867,0.0,0 STARLINK-6052,1 56793U 23078AC  23161.50002315 -.00874867  00000-0 -43750-2 0  9992,2 56793  70.0038  24.7467 0003755 264.0328 302.3117 15.83658412  1905,6698.242,90.929,322.622,317.592,0.0
56793.0,STARLINK-6052,PAYLOAD,2023-06-10 14:00:01,15.83528995,0.0003863,70.004,24.5078,264.4586,56.7384,-0.0047002,-0.00928431,0.0,0 STARLINK-6052,1 56793U 23078AC  23161.58334491 -.00928431  00000-0 -47002-2 0  9994,2 56793  70.0040  24.5078 0003863 264.4586  56.7384 15.83528995  1306,6698.607,90.936,323.06,317.884,0.0
56793.0,STARLINK-6052,PAYLOAD,2023-06-10 20:00:01,15.83010471,0.0003664,70.0039,23.791,267.6453,38.0668,-0.0047109,-0.00909775,0.0,0 STARLINK-6052,1 56793U 23078AC  23161.83334491 -.00909775  00000-0 -47109-2 0  9990,2 56793  70.0039  23.7910 0003664 267.6453  38.0668 15.83010471  1962,6700.07,90.966,324.39,319.48,0.0
56793.0,STARLINK-6052,PAYLOAD,2023-06-10 22:00:00,15.82830638,0.0003661,70.0037,23.5523,271.4466,149.0004,-0.0045515,-0.00875058,0.0,0 STARLINK-6052,1 56793U 23078AC  23161.91667824 -.00875058  00000-0 -45515-2 0  9993,2 56793  70.0037  23.5523 0003661 271.4466 149.0004 15.82830638  1301,6700.577,90.976,324.895,319.989,0.0
56793.0,STARLINK-6052,PAYLOAD,2023-06-11 14:00:01,15.81567627,0.0003721,70.0036,21.6436,264.2761,352.2542,-0.0051278,-0.00923898,0.0,0 STARLINK-6052,1 56793U 23078AC  23162.58334491 -.00923898  00000-0 -51278-2 0  9997,2 56793  70.0036  21.6436 0003721 264.2761 352.2542 15.81567627  1306,6704.144,91.049,328.504,323.514,0.0
56793.0,STARLINK-6052,PAYLOAD,2023-06-11 20:00:01,15.81045792,0.0003744,70.0036,20.9289,269.9226,329.3595,-0.0050749,-0.0089543,0.0,0 STARLINK-6052,1 56793U 23078AC  23162.83334491 -.00895430  00000-0 -50749-2 0  9997,2 56793  70.0036  20.9289 0003744 269.9226 329.3595 15.81045792  2114,6705.619,91.079,329.995,324.973,0.0
56793.0,STARLINK-6052,PAYLOAD,2023-06-12 12:00:00,15.79738711,0.0003608,70.0038,19.0256,269.8389,161.2384,-0.005208,-0.00867926,0.0,0 STARLINK-6052,1 56793U 23078AC  23163.50001157 -.00867926  00000-0 -52080-2 0  9991,2 56793  70.0038  19.0256 0003608 269.8389 161.2384 15.79738711  2225,6709.317,91.154,333.603,328.762,0.0
56793.0,STARLINK-6052,PAYLOAD,2023-06-12 20:00:01,15.79077196,0.0003506,70.0041,18.0754,272.3184,253.4977,-0.0054177,-0.00875232,0.0,0 STARLINK-6052,1 56793U 23078AC  23163.83334491 -.00875232  00000-0 -54177-2 0  9995,2 56793  70.0041  18.0754 0003506 272.3184 253.4977 15.79077196  2270,6711.191,91.193,335.409,330.703,0.0
56793.0,STARLINK-6052,PAYLOAD,2023-06-12 22:00:00,15.78907948,0.0003538,70.004,17.838,272.5119,6.8613,-0.0053166,-0.00854421,0.0,0 STARLINK-6052,1 56793U 23078AC  23163.91667824 -.00854421  00000-0 -53166-2 0  9997,2 56793  70.0040  17.8380 0003538 272.5119   6.8613 15.78907948  1302,6711.671,91.202,335.91,331.161,0.0
56793.0,STARLINK-6052,PAYLOAD,2023-06-13 12:00:00,15.7779433,0.0003572,70.0035,16.1776,267.1338,85.7739,-0.0058246,-0.00886791,0.0,0 STARLINK-6052,1 56793U 23078AC  23164.50001157 -.00886791  00000-0 -58246-2 0  9993,2 56793  70.0035  16.1776 0003572 267.1338  85.7739 15.77794330  2380,6714.828,91.267,339.092,334.295,0.0
56793.0,STARLINK-6052,PAYLOAD,2023-06-13 14:00:01,15.77664946,0.0003425,70.0037,15.9406,268.0769,197.9895,-0.006271,-0.00942827,0.0,0 STARLINK-6052,1 56793U 23078AC  23164.58334491 -.00942827  00000-0 -62710-2 0  9995,2 56793  70.0037  15.9406 0003425 268.0769 197.9895 15.77664946  1303,6715.195,91.274,339.36,334.76,0.0
56793.0,STARLINK-6052,PAYLOAD,2023-06-13 18:00:00,15.77312233,0.0003574,70.0035,15.4668,268.7985,63.4757,-0.0062135,-0.0092192,0.0,0 STARLINK-6052,1 56793U 23078AC  23164.75001157 -.00921920  00000-0 -62135-2 0  9996,2 56793  70.0035  15.4668 0003574 268.7985  63.4757 15.77312233  2425,6716.196,91.295,340.462,335.661,0.0
